*******************************************************************************
Ephemeris / WWW_USER Mon Mar 26 21:05:16 2018 Pasadena, USA      / Horizons    
*******************************************************************************
Target body name: Iapetus (608)                   {source: sat389}
Center body name: Saturn Barycenter (6)           {source: sat389}
Center-site name: BODY CENTER
*******************************************************************************
Start time      : A.D. 2000-Jan-01 00:00:00.0000 TDB
Stop  time      : A.D. 2010-Jan-01 00:00:00.0000 TDB
Step-size       : 7200 minutes
*******************************************************************************
Center geodetic : 0.00000000,0.00000000,0.0000000 {E-lon(deg),Lat(deg),Alt(km)}
Center cylindric: 0.00000000,0.00000000,0.0000000 {E-lon(deg),Dxy(km),Dz(km)}
Center radii    : (undefined)                                                  
Output units    : AU-D                                                         
Output type     : GEOMETRIC cartesian states
Output format   : 2 (position and velocity)
Reference frame : ICRF/J2000.0                                                 
Coordinate systm: Ecliptic and Mean Equinox of Reference Epoch                 
*******************************************************************************
JDTDB
   X     Y     Z
   VX    VY    VZ
*******************************************************************************
$$SOE
2453224.500000000 = A.D. 2004-Aug-07 00:00:00.0000 TDB 
   2.825816686467002E-03 -2.314267018210045E-02  4.877024402178669E-03
   1.827916413433283E-03  1.901284010870897E-04 -4.147227939600909E-04
2453229.500000000 = A.D. 2004-Aug-12 00:00:00.0000 TDB 
   1.150435097667234E-02 -2.041008033829730E-02  2.477182315150905E-03
   1.596090690242451E-03  8.922037464722843E-04 -5.331048857863663E-04
2453234.500000000 = A.D. 2004-Aug-17 00:00:00.0000 TDB 
   1.834131283238398E-02 -1.442585939412456E-02 -3.155853787869776E-04
   1.098815200234992E-03  1.471421144469932E-03 -5.688497027400234E-04
2453239.500000000 = A.D. 2004-Aug-22 00:00:00.0000 TDB 
   2.216665349418298E-02 -6.081101299719654E-03 -3.054651916546935E-03
   4.076135764076002E-04  1.820714097435552E-03 -5.112039037205827E-04
2453244.500000000 = A.D. 2004-Aug-27 00:00:00.0000 TDB 
   2.228759135000024E-02  3.276159989054919E-03 -5.282398979660781E-03
  -3.607594995458163E-04  1.868964148570310E-03 -3.670483394861909E-04
2453249.500000000 = A.D. 2004-Sep-01 00:00:00.0000 TDB 
   1.866110006206157E-02  1.208254066514739E-02 -6.621946578100310E-03
  -1.068296556588393E-03  1.603840323761997E-03 -1.614209955089118E-04
2453254.500000000 = A.D. 2004-Sep-06 00:00:00.0000 TDB 
   1.191775460901192E-02  1.887560575657783E-02 -6.856588096727554E-03
  -1.589467215023521E-03  1.077032073154398E-03  6.811590866363416E-05
2453259.500000000 = A.D. 2004-Sep-11 00:00:00.0000 TDB 
   3.218099421736640E-03  2.258289239776776E-02 -5.968652112260572E-03
  -1.841568627434941E-03  3.889276147967885E-04  2.811679702851686E-04
2453264.500000000 = A.D. 2004-Sep-16 00:00:00.0000 TDB 
  -6.001609227934658E-03  2.269838222973256E-02 -4.129690864491097E-03
  -1.797635439514198E-03 -3.393571130106238E-04  4.437666942187881E-04
2453269.500000000 = A.D. 2004-Sep-21 00:00:00.0000 TDB 
  -1.430394048066216E-02  1.931436884789037E-02 -1.652440859846619E-03
  -1.482343609351590E-03 -9.934167956047746E-04  5.339452671817164E-04
2453274.500000000 = A.D. 2004-Sep-26 00:00:00.0000 TDB 
  -2.047411618261172E-02  1.304068565753738E-02  1.073670892809931E-03
  -9.571832579008422E-04 -1.482672556225760E-03  5.428592113834800E-04
2453279.500000000 = A.D. 2004-Oct-01 00:00:00.0000 TDB 
  -2.366276038482903E-02  4.863001737788487E-03  3.644645777551912E-03
  -3.044806028483123E-04 -1.747749227781425E-03  4.731680600882917E-04
2453284.500000000 = A.D. 2004-Oct-06 00:00:00.0000 TDB 
  -2.345772888608472E-02 -4.014172052799430E-03  5.693437070731200E-03
   3.849550649246657E-04 -1.760211651327914E-03  3.365508206421602E-04
2453289.500000000 = A.D. 2004-Oct-11 00:00:00.0000 TDB 
  -1.990377661973046E-02 -1.231780269259150E-02  6.929289674802460E-03
   1.020188559071037E-03 -1.520803020455488E-03  1.515992111817970E-04
2453294.500000000 = A.D. 2004-Oct-16 00:00:00.0000 TDB 
  -1.348955285064038E-02 -1.884818085229280E-02  7.168631783790686E-03
   1.515597691312618E-03 -1.057915166114235E-03 -5.768305490171589E-05
2453299.500000000 = A.D. 2004-Oct-21 00:00:00.0000 TDB 
  -5.104539990324503E-03 -2.261639570649211E-02  6.358618065767820E-03
   1.797638951812839E-03 -4.276160765714362E-04 -2.631928601108781E-04
2453304.500000000 = A.D. 2004-Oct-26 00:00:00.0000 TDB 
   4.041442955206379E-03 -2.298289561149348E-02  4.593537242263513E-03
   1.813552829452082E-03  2.867735943402236E-04 -4.346381658532487E-04
2453309.500000000 = A.D. 2004-Oct-31 00:00:00.0000 TDB 
   1.255268228712660E-02 -1.978445013678011E-02  2.117532200830855E-03
   1.544027969514072E-03  9.792654257881781E-04 -5.431327490150785E-04
2453314.500000000 = A.D. 2004-Nov-05 00:00:00.0000 TDB 
   1.904712083118796E-02 -1.342133073009780E-02 -6.954267261816043E-04
   1.015547110973604E-03  1.533498505863023E-03 -5.666664689652676E-04
2453319.500000000 = A.D. 2004-Nov-10 00:00:00.0000 TDB 
   2.240460827957715E-02 -4.855284755942165E-03 -3.392124853973560E-03
   3.064492603009796E-04  1.845583942438885E-03 -4.966177528489691E-04
2453324.500000000 = A.D. 2004-Nov-15 00:00:00.0000 TDB 
   2.201188833770457E-02  4.520219132940054E-03 -5.520306511559661E-03
  -4.618912730474687E-04  1.851196382779751E-03 -3.424028979013092E-04
2453329.500000000 = A.D. 2004-Nov-20 00:00:00.0000 TDB 
   1.791851385469550E-02  1.313628225042428E-02 -6.720521630963070E-03
  -1.151094057510954E-03  1.546762025562259E-03 -1.312057445890080E-04
2453334.500000000 = A.D. 2004-Nov-25 00:00:00.0000 TDB 
   1.083765146731296E-02  1.956768567199227E-02 -6.801546306158739E-03
  -1.639882101721794E-03  9.918070587230062E-04  9.842677533827395E-05
2453339.500000000 = A.D. 2004-Nov-30 00:00:00.0000 TDB 
   1.982862464320513E-03  2.281074928866741E-02 -5.772666377186925E-03
  -1.852710132985564E-03  2.912349483820156E-04  3.064803750631242E-04
2453344.500000000 = A.D. 2004-Dec-05 00:00:00.0000 TDB 
  -7.194221937969386E-03  2.244070924350369E-02 -3.827717832628607E-03
  -1.770101207928274E-03 -4.333159315740710E-04  4.603768416299355E-04
2453349.500000000 = A.D. 2004-Dec-10 00:00:00.0000 TDB 
  -1.527478584487399E-02  1.862559288223331E-02 -1.293552732887953E-03
  -1.422623007354504E-03 -1.069917112870867E-03  5.399277038419549E-04
2453354.500000000 = A.D. 2004-Dec-15 00:00:00.0000 TDB 
  -2.108651764071164E-02  1.203429316646517E-02  1.435054977135644E-03
  -8.754083217046137E-04 -1.531947901083957E-03  5.379555433687770E-04
2453359.500000000 = A.D. 2004-Dec-20 00:00:00.0000 TDB 
  -2.383569234607854E-02  3.690671550382565E-03  3.956338487289951E-03
  -2.125099758854053E-04 -1.764270710192734E-03  4.584716148765782E-04
2453364.500000000 = A.D. 2004-Dec-25 00:00:00.0000 TDB 
  -2.317092037672301E-02 -5.183247617833391E-03  5.911400327737609E-03
   4.748509466174199E-04 -1.742450444619861E-03  3.141806662633914E-04
2453369.500000000 = A.D. 2004-Dec-30 00:00:00.0000 TDB 
  -1.919753162027595E-02 -1.331621867327617E-02  7.022161921672508E-03
   1.096165179152930E-03 -1.470973835554179E-03  1.244756743977516E-04
2453374.500000000 = A.D. 2005-Jan-04 00:00:00.0000 TDB 
  -1.246079104236830E-02 -1.952875424668027E-02  7.121271707572279E-03
   1.566996199586589E-03 -9.818950255724560E-04 -8.601800377132380E-05
2453379.500000000 = A.D. 2005-Jan-09 00:00:00.0000 TDB 
  -3.898516874045461E-03 -2.287057137263479E-02  6.174782547436283E-03
   1.815985415034422E-03 -3.349749984265721E-04 -2.887658360776381E-04
2453384.500000000 = A.D. 2005-Jan-14 00:00:00.0000 TDB 
   5.245542869710676E-03 -2.275877238919137E-02  4.297217454840530E-03
   1.794033630097406E-03  3.830422030287240E-04 -4.534077000900584E-04
2453389.500000000 = A.D. 2005-Jan-19 00:00:00.0000 TDB 
   1.356448034976871E-02 -1.910160554292779E-02  1.751857589999901E-03
   1.487271517374426E-03  1.063845415999715E-03 -5.516133780803188E-04
2453394.500000000 = A.D. 2005-Jan-24 00:00:00.0000 TDB 
   1.969605561737144E-02 -1.237693267320391E-02 -1.073032740173213E-03
   9.289921349109605E-04  1.591195574338517E-03 -5.627763190440327E-04
2453399.500000000 = A.D. 2005-Jan-29 00:00:00.0000 TDB 
   2.257450902979456E-02 -3.614858553788677E-03 -3.719111054465763E-03
   2.042019296802921E-04  1.864889984265261E-03 -4.804965055056312E-04
2453404.500000000 = A.D. 2005-Feb-03 00:00:00.0000 TDB 
   2.166903306402274E-02  5.750382821154863E-03 -5.741182215754707E-03
  -5.615780590105100E-04  1.827792848595114E-03 -3.167227262027330E-04
2453409.500000000 = A.D. 2005-Feb-08 00:00:00.0000 TDB 
   1.712178641657680E-02  1.415024225636799E-02 -6.798616304775014E-03
  -1.230237672205536E-03  1.485141390994560E-03 -1.006657865528468E-04
2453414.500000000 = A.D. 2005-Feb-13 00:00:00.0000 TDB 
   9.725509327298279E-03  2.020184018445077E-02 -6.726264626477079E-03
  -1.685277892954115E-03  9.039622154247724E-04  1.283285123016292E-04
2453419.500000000 = A.D. 2005-Feb-18 00:00:00.0000 TDB 
   7.419312904344233E-04  2.297310857225205E-02 -5.560048819821403E-03
  -1.858502332178611E-03  1.931366461943829E-04  3.307925205820588E-04
2453424.500000000 = A.D. 2005-Feb-23 00:00:00.0000 TDB 
  -8.366897532082678E-03  2.212072374723601E-02 -3.515119486908555E-03
  -1.737792522070263E-03 -5.256572565654514E-04  4.756257165324056E-04
2453429.500000000 = A.D. 2005-Feb-28 00:00:00.0000 TDB 
  -1.620460684463617E-02  1.788669420090710E-02 -9.312443899368723E-04
  -1.359318810317701E-03 -1.143250787680379E-03  5.444266763893594E-04
